NORAD_CAT_ID,OBJECT_NAME,OBJECT_TYPE,EPOCH,MEAN_MOTION,ECCENTRICITY,INCLINATION,RA_OF_ASC_NODE,ARG_OF_PERICENTER,MEAN_ANOMALY,BSTAR,MEAN_MOTION_DOT,MEAN_MOTION_DDOT,TLE_LINE0,TLE_LINE1,TLE_LINE2,SEMIMAJOR_AXIS,PERIOD,APOGEE,PERIGEE,DECAYED
51115.0,STARLINK-3397,PAYLOAD,2023-05-15 12:12:27,15.08839146,0.0001032,53.2143,229.2972,86.7152,273.3959,0.00010108,1.321e-05,0.0,0 STARLINK-3397,1 51115U 22005M   23135.50865481  .00001321  00000-0  10108-3 0  9993,2 51115  53.2143 229.2972 0001032  86.7152 273.3959 15.08839146 73509,6917.883,95.438,540.462,539.034,0.0
51115.0,STARLINK-3397,PAYLOAD,2023-05-15 15:23:13,15.08842918,0.0001104,53.2148,228.7012,81.0528,279.0589,0.00018465,2.652e-05,0.0,0 STARLINK-3397,1 51115U 22005M   23135.64113405  .00002652  00000-0  18465-3 0  9992,2 51115  53.2148 228.7012 0001104  81.0528 279.0589 15.08842918 74636,6917.871,95.437,540.5,538.973,0.0
51115.0,STARLINK-3397,PAYLOAD,2023-05-16 05:41:42,15.08834146,0.0001153,53.2148,226.0246,83.7029,276.4094,0.00023881,3.514e-05,0.0,0 STARLINK-3397,1 51115U 22005M   23136.23730058  .00003514  00000-0  23881-3 0  9993,2 51115  53.2148 226.0246 0001153  83.7029 276.4094 15.08834146 74721,6917.898,95.438,540.561,538.966,0.0
51115.0,STARLINK-3397,PAYLOAD,2023-05-16 12:03:15,15.08836184,0.0001184,53.2152,224.835,78.2574,281.8551,7.8199e-05,9.57e-06,0.0,0 STARLINK-3397,1 51115U 22005M   23136.50226001  .00000957  00000-0  78199-4 0  9992,2 51115  53.2152 224.8350 0001184  78.2574 281.8551 15.08836184 73659,6917.892,95.438,540.576,538.938,0.0
51115.0,STARLINK-3397,PAYLOAD,2023-05-17 10:18:38,15.08846858,0.0001323,53.2162,220.6722,73.6479,286.4658,0.00018691,2.689e-05,0.0,0 STARLINK-3397,1 51115U 22005M   23137.42961631  .00002689  00000-0  18691-3 0  9993,2 51115  53.2162 220.6722 0001323  73.6479 286.4658 15.08846858 74902,6917.859,95.437,540.64,538.809,0.0
51115.0,STARLINK-3397,PAYLOAD,2023-05-17 11:54:01,15.08847313,0.0001309,53.2162,220.3748,73.8119,286.3017,0.00018931,2.727e-05,0.0,0 STARLINK-3397,1 51115U 22005M   23137.49585587  .00002727  00000-0  18931-3 0  9992,2 51115  53.2162 220.3748 0001309  73.8119 286.3017 15.08847313 73807,6917.858,95.437,540.629,538.817,0.0
51115.0,STARLINK-3397,PAYLOAD,2023-05-18 11:44:49,15.0883649,0.0001105,53.2155,215.9137,81.2836,278.8281,5.9972e-05,6.67e-06,0.0,0 STARLINK-3397,1 51115U 22005M   23138.48946103  .00000667  00000-0  59972-4 0  9999,2 51115  53.2155 215.9137 0001105  81.2836 278.8281 15.08836490 75067,6917.891,95.438,540.521,538.992,0.0
51115.0,STARLINK-3397,PAYLOAD,2023-05-18 14:55:35,15.08839412,0.00011,53.2155,215.3185,84.4284,275.6833,7.4548e-05,8.99e-06,0.0,0 STARLINK-3397,1 51115U 22005M   23138.62193845  .00000899  00000-0  74548-4 0  9995,2 51115  53.2155 215.3185 0001100  84.4284 275.6833 15.08839412 73974,6917.882,95.438,540.508,538.986,0.0
51115.0,STARLINK-3397,PAYLOAD,2023-05-19 08:24:49,15.08843816,0.0001116,53.2153,212.0468,88.5606,271.5514,1.8917e-05,1.3e-07,0.0,0 STARLINK-3397,1 51115U 22005M   23139.35057578  .00000013  00000-0  18917-4 0  9994,2 51115  53.2153 212.0468 0001116  88.5606 271.5514 15.08843816 75190,6917.869,95.437,540.506,538.962,0.0
51115.0,STARLINK-3397,PAYLOAD,2023-05-19 11:35:35,15.0884448,0.0001026,53.2151,211.4522,101.2635,258.8472,3.4062e-05,2.54e-06,0.0,0 STARLINK-3397,1 51115U 22005M   23139.48305388  .00000254  00000-0  34062-4 0  9999,2 51115  53.2151 211.4522 0001026 101.2635 258.8472 15.08844480 74106,6917.867,95.437,540.441,539.022,0.0
51115.0,STARLINK-3397,PAYLOAD,2023-05-20 09:50:59,15.08837015,9.96e-05,53.2157,207.2896,84.274,275.8366,0.00021939,3.205e-05,0.0,0 STARLINK-3397,1 51115U 22005M   23140.41041525  .00003205  00000-0  21939-3 0  9991,2 51115  53.2157 207.2896 0000996  84.2740 275.8366 15.08837015 75356,6917.89,95.438,540.444,539.065,0.0
51115.0,STARLINK-3397,PAYLOAD,2023-05-20 11:26:22,15.08861789,0.00012,53.216,206.992,102.0487,258.0639,-6.0539e-05,-1.252e-05,0.0,0 STARLINK-3397,1 51115U 22005M   23140.47664480 -.00001252  00000-0 -60539-4 0  9990,2 51115  53.2160 206.9920 0001200 102.0487 258.0639 15.08861789 75362,6917.814,95.436,540.509,538.849,0.0
51115.0,STARLINK-3397,PAYLOAD,2023-05-20 20:58:41,15.08846286,0.0001046,53.2161,205.2076,95.2653,264.8458,0.00012569,1.713e-05,0.0,0 STARLINK-3397,1 51115U 22005M   23140.87408970  .00001713  00000-0  12569-3 0  9993,2 51115  53.2161 205.2076 0001046  95.2653 264.8458 15.08846286 74316,6917.861,95.437,540.45,539.003,0.0
51115.0,STARLINK-3397,PAYLOAD,2023-05-21 03:20:14,15.08844235,0.0001007,53.2151,204.0197,94.0069,266.1038,0.00011258,1.505e-05,0.0,0 STARLINK-3397,1 51115U 22005M   23141.13905102  .00001505  00000-0  11258-3 0  9995,2 51115  53.2151 204.0197 0001007  94.0069 266.1038 15.08844235 75469,6917.867,95.437,540.429,539.036,0.0
51115.0,STARLINK-3397,PAYLOAD,2023-05-21 09:41:46,15.08843824,0.0001053,53.2159,202.829,96.8968,263.2144,5.626e-05,6.08e-06,0.0,0 STARLINK-3397,1 51115U 22005M   23141.40401174  .00000608  00000-0  56260-4 0  9991,2 51115  53.2159 202.8290 0001053  96.8968 263.2144 15.08843824 74396,6917.869,95.437,540.462,539.005,0.0
51115.0,STARLINK-3397,PAYLOAD,2023-05-21 20:49:28,15.08840342,9.91e-05,53.2158,200.7485,89.8898,270.2208,3.8873e-05,3.31e-06,0.0,0 STARLINK-3397,1 51115U 22005M   23141.86769365  .00000331  00000-0  38873-4 0  9993,2 51115  53.2158 200.7485 0000991  89.8898 270.2208 15.08840342 74461,6917.879,95.438,540.43,539.059,0.0
51115.0,STARLINK-3397,PAYLOAD,2023-05-21 22:24:51,15.08839364,0.0001057,53.2163,200.4513,87.0127,273.0986,3.1097e-05,2.07e-06,0.0,0 STARLINK-3397,1 51115U 22005M   23141.93393456  .00000207  00000-0  31097-4 0  9998,2 51115  53.2163 200.4513 0001057  87.0127 273.0986 15.08839364 75585,6917.882,95.438,540.479,539.016,0.0
51115.0,STARLINK-3397,PAYLOAD,2023-05-22 12:43:21,15.08832691,0.0001015,53.2159,197.7732,91.1722,268.9386,-7.1441e-05,-1.424e-05,0.0,0 STARLINK-3397,1 51115U 22005M   23142.53010460 -.00001424  00000-0 -71441-4 0  9997,2 51115  53.2159 197.7732 0001015  91.1722 268.9386 15.08832691 74562,6917.903,95.438,540.47,539.066,0.0
51115.0,STARLINK-3397,PAYLOAD,2023-05-22 20:40:16,15.08835034,0.0001062,53.2163,196.2884,83.9079,276.2034,-8.0839e-05,-1.574e-05,0.0,0 STARLINK-3397,1 51115U 22005M   23142.86130540 -.00001574  00000-0 -80839-4 0  9992,2 51115  53.2163 196.2884 0001062  83.9079 276.2034 15.08835034 74617,6917.896,95.438,540.495,539.026,0.0
51115.0,STARLINK-3397,PAYLOAD,2023-05-23 20:31:03,15.08837723,0.0001135,53.2162,191.8272,74.9941,285.1177,5.4604e-05,5.81e-06,0.0,0 STARLINK-3397,1 51115U 22005M   23143.85490381  .00000581  00000-0  54604-4 0  9990,2 51115  53.2162 191.8272 0001135  74.9941 285.1177 15.08837723 74767,6917.887,95.438,540.538,538.967,0.0
51115.0,STARLINK-3397,PAYLOAD,2023-05-24 07:38:45,15.08836784,0.0001033,53.2156,189.7448,74.3524,285.7582,0.00020618,2.995e-05,0.0,0 STARLINK-3397,1 51115U 22005M   23144.31858135  .00002995  00000-0  20618-3 0  9995,2 51115  53.2156 189.7448 0001033  74.3524 285.7582 15.08836784 74839,6917.89,95.438,540.47,539.041,0.0
51115.0,STARLINK-3397,PAYLOAD,2023-05-25 23:23:23,15.08844554,0.0001124,53.2152,182.312,69.2836,290.8277,1.8493e-05,7e-08,0.0,0 STARLINK-3397,1 51115U 22005M   23145.97458306  .00000007  00000-0  18493-4 0  9995,2 51115  53.2152 182.3120 0001124  69.2836 290.8277 15.08844554 76194,6917.866,95.437,540.509,538.954,0.0
51115.0,STARLINK-3397,PAYLOAD,2023-05-26 12:06:28,15.08843293,0.0001028,53.215,179.931,84.9814,275.1295,1.2474e-05,-8.9e-07,0.0,0 STARLINK-3397,1 51115U 22005M   23146.50450127 -.00000089  00000-0  12474-4 0  9992,2 51115  53.2150 179.9310 0001028  84.9814 275.1295 15.08843293 75169,6917.87,95.437,540.446,539.024,0.0
51115.0,STARLINK-3397,PAYLOAD,2023-05-27 02:24:57,15.08835701,0.000103,53.2147,177.2546,82.6186,277.4923,-5.6276e-07,-2.97e-06,0.0,0 STARLINK-3397,1 51115U 22005M   23147.10066587 -.00000297  00000-0 -56276-6 0  9994,2 51115  53.2147 177.2546 0001030  82.6186 277.4923 15.08835701 76368,6917.894,95.438,540.471,539.046,0.0
51115.0,STARLINK-3397,PAYLOAD,2023-05-27 18:18:48,15.08836826,0.0001004,53.2148,174.281,77.1274,282.9831,2.3267e-06,-2.51e-06,0.0,0 STARLINK-3397,1 51115U 22005M   23147.76306608 -.00000251  00000-0  23267-5 0  9999,2 51115  53.2148 174.2810 0001004  77.1274 282.9831 15.08836826 75354,6917.89,95.438,540.45,539.061,0.0
51115.0,STARLINK-3397,PAYLOAD,2023-05-28 05:26:30,15.0883775,0.0001014,53.2147,172.1995,77.5077,282.6028,1.9869e-05,2.8e-07,0.0,0 STARLINK-3397,1 51115U 22005M   23148.22674582  .00000028  00000-0  19869-4 0  9993,2 51115  53.2147 172.1995 0001014  77.5077 282.6028 15.08837750 75420,6917.887,95.438,540.454,539.051,0.0
51115.0,STARLINK-3397,PAYLOAD,2023-05-28 08:37:17,15.08838373,0.0001017,53.2148,171.6048,77.2576,282.853,2.4126e-05,9.6e-07,0.0,0 STARLINK-3397,1 51115U 22005M   23148.35922543  .00000096  00000-0  24126-4 0  9997,2 51115  53.2148 171.6048 0001017  77.2576 282.8530 15.08838373 76555,6917.885,95.438,540.454,539.047,0.0
51115.0,STARLINK-3397,PAYLOAD,2023-05-29 06:52:41,15.08835692,0.0001016,53.2151,167.4423,76.7334,283.3771,5.2551e-05,5.49e-06,0.0,0 STARLINK-3397,1 51115U 22005M   23149.28658795  .00000549  00000-0  52551-4 0  9991,2 51115  53.2151 167.4423 0001016  76.7334 283.3771 15.08835692 75580,6917.894,95.438,540.461,539.056,0.0
51115.0,STARLINK-3397,PAYLOAD,2023-05-29 18:00:23,15.0883597,0.0001029,53.2151,165.3606,75.8227,284.288,3.9085e-05,3.34e-06,0.0,0 STARLINK-3397,1 51115U 22005M   23149.75026925  .00000334  00000-0  39085-4 0  9996,2 51115  53.2151 165.3606 0001029  75.8227 284.2880 15.08835970 76766,6917.893,95.438,540.47,539.046,0.0
51115.0,STARLINK-3397,PAYLOAD,2023-05-29 21:11:09,15.08836439,0.0001043,53.2152,164.766,79.8087,280.3022,2.0702e-05,4.2e-07,0.0,0 STARLINK-3397,1 51115U 22005M   23149.88274992  .00000042  00000-0  20702-4 0  9991,2 51115  53.2152 164.7660 0001043  79.8087 280.3022 15.08836439 75679,6917.891,95.438,540.478,539.035,0.0
